COMMENT,ORIGINATOR,NORAD_CAT_ID,OBJECT_NAME,OBJECT_TYPE,CLASSIFICATION_TYPE,INTLDES,EPOCH,EPOCH_MICROSECONDS,MEAN_MOTION,ECCENTRICITY,INCLINATION,RA_OF_ASC_NODE,ARG_OF_PERICENTER,MEAN_ANOMALY,EPHEMERIS_TYPE,ELEMENT_SET_NO,REV_AT_EPOCH,BSTAR,MEAN_MOTION_DOT,MEAN_MOTION_DDOT,FILE,TLE_LINE0,TLE_LINE1,TLE_LINE2,OBJECT_ID,OBJECT_NUMBER,SEMIMAJOR_AXIS,PERIOD,APOGEE,PERIGEE,DECAYED
"GENERATED VIA SPACETRACK.ORG API","18 SPCS","47950","OBJECT U","TBA","U","21022U","2021-06-17 11:08:14","942976","15.0567813","0.0020637","97.558","70.5978","317.27","146.8221","0","999","1305","0.000070527","0.00000961","0","3057483","0 OBJECT U","1 47950U 21022U   21168.46406184  .00000961  00000-0  70527-4 0  9994","2 47950  97.5580  70.5978 0020637 317.2700 146.8221 15.05678130 13054","2021-022U","47950","6927.562","95.638","563.723","535.130","0"
"GENERATED VIA SPACETRACK.ORG API","18 SPCS","47950","OBJECT U","TBA","U","21022U","2021-06-17 18:57:55","52928","15.05678746","0.002062","97.5578","70.9174","316.2467","114.6582","0","999","1310","0.000070081","0.00000955","0","3057638","0 OBJECT U","1 47950U 21022U   21168.79022052  .00000955  00000-0  70081-4 0  9996","2 47950  97.5578  70.9174 0020620 316.2467 114.6582 15.05678746 13106","2021-022U","47950","6927.560","95.638","563.710","535.140","0"
"GENERATED VIA SPACETRACK.ORG API","18 SPCS","47950","OBJECT U","TBA","U","21022U","2021-06-17 23:41:13","229088","15.05679022","0.0020627","97.5579","71.1101","315.6586","100.9833","0","999","1313","0.000069033","0.00000939","0","3057659","0 OBJECT U","1 47950U 21022U   21168.98695867  .00000939  00000-0  69033-4 0  9994","2 47950  97.5579  71.1101 0020627 315.6586 100.9833 15.05679022 13130","2021-022U","47950","6927.559","95.638","563.714","535.135","0"
"GENERATED VIA SPACETRACK.ORG API","18 SPCS","47950","OBJECT U","TBA","U","21022U","2021-06-18 03:13:52","419936","15.05679352","0.0020617","97.5578","71.255","315.145","181.4629","0","999","1315","0.000069114","0.00000941","0","3057893","0 OBJECT U","1 47950U 21022U   21169.13463449  .00000941  00000-0  69114-4 0  9994","2 47950  97.5578  71.2550 0020617 315.1450 181.4629 15.05679352 13157","2021-022U","47950","6927.558","95.638","563.706","535.141","0"
"GENERATED VIA SPACETRACK.ORG API","18 SPCS","47950","OBJECT U","TBA","U","21022U","2021-06-18 10:59:14","957664","15.05679428","0.0020584","97.5575","71.5715","313.9422","133.3277","0","999","1320","0.000064608","0.00000875","0","3057924","0 OBJECT U","1 47950U 21022U   21169.45781201  .00000875  00000-0  64608-4 0  9997","2 47950  97.5575  71.5715 0020584 313.9422 133.3277 15.05679428 13203","2021-022U","47950","6927.558","95.638","563.683","535.163","0"
"GENERATED VIA SPACETRACK.ORG API","18 SPCS","47950","OBJECT U","TBA","U","21022U","2021-06-19 23:34:04","230624","15.05681213","0.0020451","97.5569","73.0647","308.6452","115.1764","0","999","1343","0.00005634","0.00000755","0","3058991","0 OBJECT U","1 47950U 21022U   21170.98199341  .00000755  00000-0  56340-4 0  9996","2 47950  97.5569  73.0647 0020451 308.6452 115.1764 15.05681213 13433","2021-022U","47950","6927.552","95.638","563.585","535.250","0"
"GENERATED VIA SPACETRACK.ORG API","18 SPCS","47950","OBJECT U","TBA","U","21022U","2021-06-19 23:34:04","230624","15.05681213","0.0020451","97.5569","73.0647","308.6452","115.1764","0","999","1343","0.00005634","0.00000755","0","3058996","0 OBJECT U","1 47950U 21022U   21170.98199341  .00000755  00000-0  56340-4 0  9996","2 47950  97.5569  73.0647 0020451 308.6452 115.1764 15.05681213 13433","2021-022U","47950","6927.552","95.638","563.585","535.250","0"
"GENERATED VIA SPACETRACK.ORG API","18 SPCS","47950","OBJECT U","TBA","U","21022U","2021-06-21 14:05:18","57120","15.05681177","0.0020356","97.5564","74.6365","302.847","175.4334","0","999","1367","0.00003869","0.00000499","0","3060000","0 OBJECT U","1 47950U 21022U   21172.58701455  .00000499  00000-0  38690-4 0  9992","2 47950  97.5564  74.6365 0020356 302.8470 175.4334 15.05681177 13679","2021-022U","47950","6927.553","95.638","563.519","535.316","0"
"GENERATED VIA SPACETRACK.ORG API","18 SPCS","47950","OBJECT U","TBA","U","21022U","2021-06-21 14:05:18","57120","15.05681177","0.0020356","97.5564","74.6365","302.847","175.4334","0","999","1367","0.00003869","0.00000499","0","3060216","0 OBJECT U","1 47950U 21022U   21172.58701455  .00000499  00000-0  38690-4 0  9992","2 47950  97.5564  74.6365 0020356 302.8470 175.4334 15.05681177 13679","2021-022U","47950","6927.553","95.638","563.519","535.316","0"
"GENERATED VIA SPACETRACK.ORG API","18 SPCS","47950","OBJECT U","TBA","U","21022U","2021-06-21 17:06:28","645056","15.05681295","0.0020354","97.5564","74.7598","302.3567","137.4805","0","999","1369","0.000038123","0.00000491","0","3060209","0 OBJECT U","1 47950U 21022U   21172.71283154  .00000491  00000-0  38123-4 0  9991","2 47950  97.5564  74.7598 0020354 302.3567 137.4805 15.05681295 13692","2021-022U","47950","6927.552","95.638","563.518","535.317","0"
"GENERATED VIA SPACETRACK.ORG API","18 SPCS","47950","OBJECT U","TBA","U","21022U","2021-06-22 01:14:10","259232","15.05681022","0.0020309","97.5565","75.0919","301.129","173.3287","0","999","1374","0.000032895","0.00000415","0","3060418","0 OBJECT U","1 47950U 21022U   21173.05150763  .00000415  00000-0  32895-4 0  9994","2 47950  97.5565  75.0919 0020309 301.1290 173.3287 15.05681022 13741","2021-022U","47950","6927.553","95.638","563.487","535.349","0"
"GENERATED VIA SPACETRACK.ORG API","18 SPCS","47950","OBJECT U","TBA","U","21022U","2021-06-22 01:14:10","259232","15.05681022","0.0020309","97.5565","75.0919","301.129","173.3287","0","999","1374","0.000032895","0.00000415","0","3060787","0 OBJECT U","1 47950U 21022U   21173.05150763  .00000415  00000-0  32895-4 0  9994","2 47950  97.5565  75.0919 0020309 301.1290 173.3287 15.05681022 13741","2021-022U","47950","6927.553","95.638","563.487","535.349","0"
"GENERATED VIA SPACETRACK.ORG API","18 SPCS","47950","OBJECT U","TBA","U","21022U","2021-06-24 05:21:45","47520","15.05680943","0.0020372","97.5552","77.2164","291.0892","68.7995","0","999","1407","0.000045961","0.00000605","0","3061493","0 OBJECT U","1 47950U 21022U   21175.22343805  .00000605  00000-0  45961-4 0  9995","2 47950  97.5552  77.2164 0020372 291.0892  68.7995 15.05680943 14079","2021-022U","47950","6927.553","95.638","563.531","535.305","0"
"GENERATED VIA SPACETRACK.ORG API","18 SPCS","47950","OBJECT U","TBA","U","21022U","2021-06-26 03:36:59","658336","15.05682145","0.0020458","97.5558","79.1063","285.3399","74.5636","0","999","1436","0.000024394","0.00000292","0","3063119","0 OBJECT U","1 47950U 21022U   21177.15069049  .00000292  00000-0  24394-4 0  9993","2 47950  97.5558  79.1063 0020458 285.3399  74.5636 15.05682145 14362","2021-022U","47950","6927.550","95.638","563.587","535.242","0"
"GENERATED VIA SPACETRACK.ORG API","18 SPCS","47950","OBJECT U","TBA","U","21022U","2021-06-26 11:35:28","885344","15.05682625","0.0020407","97.5558","79.4318","284.1449","75.7524","0","999","1441","0.00002625","0.00000319","0","3063349","0 OBJECT U","1 47950U 21022U   21177.48297321  .00000319  00000-0  26250-4 0  9998","2 47950  97.5558  79.4318 0020407 284.1449  75.7524 15.05682625 14413","2021-022U","47950","6927.548","95.638","563.550","535.276","0"
"GENERATED VIA SPACETRACK.ORG API","18 SPCS","47950","OBJECT U","TBA","U","21022U","2021-06-26 11:35:28","885344","15.05682625","0.0020407","97.5558","79.4318","284.1449","75.7524","0","999","1441","0.00002625","0.00000319","0","3063370","0 OBJECT U","1 47950U 21022U   21177.48297321  .00000319  00000-0  26250-4 0  9998","2 47950  97.5558  79.4318 0020407 284.1449  75.7524 15.05682625 14413","2021-022U","47950","6927.548","95.638","563.550","535.276","0"
"GENERATED VIA SPACETRACK.ORG API","18 SPCS","47950","OBJECT U","TBA","U","21022U","2021-06-26 19:33:58","147776","15.05683297","0.0020461","97.5557","79.7573","282.9304","76.9644","0","999","1446","0.000029234","0.00000362","0","3063612","0 OBJECT U","1 47950U 21022U   21177.81525634  .00000362  00000-0  29234-4 0  9999","2 47950  97.5557  79.7573 0020461 282.9304  76.9644 15.05683297 14461","2021-022U","47950","6927.546","95.638","563.585","535.237","0"
"GENERATED VIA SPACETRACK.ORG API","18 SPCS","47950","OBJECT U","TBA","U","21022U","2021-06-26 19:33:58","147776","15.05683297","0.0020461","97.5557","79.7573","282.9304","76.9644","0","999","1446","0.000029234","0.00000362","0","3063717","0 OBJECT U","1 47950U 21022U   21177.81525634  .00000362  00000-0  29234-4 0  9999","2 47950  97.5557  79.7573 0020461 282.9304  76.9644 15.05683297 14461","2021-022U","47950","6927.546","95.638","563.585","535.237","0"
"GENERATED VIA SPACETRACK.ORG API","18 SPCS","47950","OBJECT U","TBA","U","21022U","2021-06-27 03:32:27","394656","15.05684466","0.0020483","97.5556","80.0826","281.5379","78.3578","0","999","1451","0.000036086","0.00000461","0","3063950","0 OBJECT U","1 47950U 21022U   21178.14753929  .00000461  00000-0  36086-4 0  9999","2 47950  97.5556  80.0826 0020483 281.5379  78.3578 15.05684466 14514","2021-022U","47950","6927.542","95.638","563.597","535.218","0"
"GENERATED VIA SPACETRACK.ORG API","18 SPCS","47950","OBJECT U","TBA","U","21022U","2021-06-27 11:30:56","610432","15.05685681","0.0020456","97.5556","80.4081","280.3324","79.5634","0","999","1456","0.000042756","0.00000558","0","3064265","0 OBJECT U","1 47950U 21022U   21178.47982188  .00000558  00000-0  42756-4 0  9994","2 47950  97.5556  80.4081 0020456 280.3324  79.5634 15.05685681 14569","2021-022U","47950","6927.539","95.637","563.575","535.233","0"
